{
  "type": "FeatureCollection",
  "features": [
    {
      "type": "Feature",
      "properties": {
        "norad_id": 40118,
        "name": "GAOFEN-2",
        "group": "resource",
        "lat": 47.35351762337431,
        "lon": 49.68566441332024,
        "alt_km": 617.8612878963977,
        "timestamp": "2025-12-25T07:41:09.380082+00:00",
        "meta_object_name": "GAOFEN-2",
        "meta_object_id": "2014-049A",
        "meta_epoch": "2025-12-24T23:21:38.239200",
        "meta_mean_motion": 14.80626646,
        "meta_eccentricity": 0.00087405,
        "meta_inclination": 98.0365,
        "meta_ra_of_asc_node": 58.1621,
        "meta_arg_of_pericenter": 79.2169,
        "meta_mean_anomaly": 281.0026,
        "meta_ephemeris_type": 0,
        "meta_classification_type": "U",
        "meta_norad_cat_id": 40118,
        "meta_element_set_no": 999,
        "meta_rev_at_epoch": 61345,
        "meta_bstar": 3.484934e-05,
        "meta_mean_motion_dot": 2.14e-06,
        "meta_mean_motion_ddot": 0,
        "tle_line1": "1 40118U 14049A   25358.97335925  .00000214  00000+0  34849-4 0  9996",
        "tle_line2": "2 40118  98.0365  58.1621 0008740  79.2169 281.0026 14.80626646613454"
      },
      "geometry": {
        "type": "Point",
        "coordinates": [
          49.68566441332024,
          47.35351762337431
        ]
      }
    },
    {
      "type": "Feature",
      "properties": {
        "norad_id": 40143,
        "name": "YAOGAN-21",
        "group": "resource",
        "lat": 19.024534183729358,
        "lon": -135.42595382468426,
        "alt_km": 500.22747002447613,
        "timestamp": "2025-12-25T07:41:09.380092+00:00",
        "meta_object_name": "YAOGAN-21",
        "meta_object_id": "2014-053A",
        "meta_epoch": "2025-12-24T23:06:10.562400",
        "meta_mean_motion": 15.23793316,
        "meta_eccentricity": 0.00085174,
        "meta_inclination": 97.1737,
        "meta_ra_of_asc_node": 41.7429,
        "meta_arg_of_pericenter": 1.9406,
        "meta_mean_anomaly": 358.1863,
        "meta_ephemeris_type": 0,
        "meta_classification_type": "U",
        "meta_norad_cat_id": 40143,
        "meta_element_set_no": 999,
        "meta_rev_at_epoch": 62840,
        "meta_bstar": 0.00018588458,
        "meta_mean_motion_dot": 4.411e-05,
        "meta_mean_motion_ddot": 0,
        "tle_line1": "1 40143U 14053A   25358.96262225  .00004411  00000+0  18588-3 0  9994",
        "tle_line2": "2 40143  97.1737  41.7429 0008517   1.9406 358.1863 15.23793316628400"
      },
      "geometry": {
        "type": "Point",
        "coordinates": [
          -135.42595382468426,
          19.024534183729358
        ]
      }
    },
    {
      "type": "Feature",
      "properties": {
        "norad_id": 40275,
        "name": "YAOGAN-22",
        "group": "resource",
        "lat": -56.65625825895403,
        "lon": 159.68690912889053,
        "alt_km": 1208.2802544045835,
        "timestamp": "2025-12-25T07:41:09.380102+00:00",
        "meta_object_name": "YAOGAN-22",
        "meta_object_id": "2014-063A",
        "meta_epoch": "2025-12-24T21:01:48.725760",
        "meta_mean_motion": 13.15523235,
        "meta_eccentricity": 0.00060853,
        "meta_inclination": 100.743,
        "meta_ra_of_asc_node": 142.4674,
        "meta_arg_of_pericenter": 219.2069,
        "meta_mean_anomaly": 140.8602,
        "meta_ephemeris_type": 0,
        "meta_classification_type": "U",
        "meta_norad_cat_id": 40275,
        "meta_element_set_no": 999,
        "meta_rev_at_epoch": 53689,
        "meta_bstar": 7.6375234e-05,
        "meta_mean_motion_dot": -1.8e-07,
        "meta_mean_motion_ddot": 0,
        "tle_line1": "1 40275U 14063A   25358.87625840 -.00000018  00000+0  76375-4 0  9996",
        "tle_line2": "2 40275 100.7430 142.4674 0006085 219.2069 140.8602 13.15523235536893"
      },
      "geometry": {
        "type": "Point",
        "coordinates": [
          159.68690912889053,
          -56.65625825895403
        ]
      }
    },
    {
      "type": "Feature",
      "properties": {
        "norad_id": 40298,
        "name": "ASNARO",
        "group": "resource",
        "lat": 22.151876932114018,
        "lon": 71.94138240440907,
        "alt_km": 504.80774426655444,
        "timestamp": "2025-12-25T07:41:09.380113+00:00",
        "meta_object_name": "ASNARO",
        "meta_object_id": "2014-070A",
        "meta_epoch": "2025-12-24T22:06:23.474592",
        "meta_mean_motion": 15.19730842,
        "meta_eccentricity": 0.00058245,
        "meta_inclination": 97.3636,
        "meta_ra_of_asc_node": 74.5699,
        "meta_arg_of_pericenter": 89.5435,
        "meta_mean_anomaly": 270.6467,
        "meta_ephemeris_type": 0,
        "meta_classification_type": "U",
        "meta_norad_cat_id": 40298,
        "meta_element_set_no": 999,
        "meta_rev_at_epoch": 61754,
        "meta_bstar": 0.00017736012,
        "meta_mean_motion_dot": 3.724e-05,
        "meta_mean_motion_ddot": 0,
        "tle_line1": "1 40298U 14070A   25358.92110503  .00003724  00000+0  17736-3 0  9991",
        "tle_line2": "2 40298  97.3636  74.5699 0005824  89.5435 270.6467 15.19730842617547"
      },
      "geometry": {
        "type": "Point",
        "coordinates": [
          71.94138240440907,
          22.151876932114018
        ]
      }
    },
    {
      "type": "Feature",
      "properties": {
        "norad_id": 40310,
        "name": "YAOGAN-24",
        "group": "resource",
        "lat": -11.745531492549345,
        "lon": -51.22041163601108,
        "alt_km": 645.9776789392463,
        "timestamp": "2025-12-25T07:41:09.380123+00:00",
        "meta_object_name": "YAOGAN-24",
        "meta_object_id": "2014-072A",
        "meta_epoch": "2025-12-24T22:41:15.756864",
        "meta_mean_motion": 14.76202505,
        "meta_eccentricity": 0.00151991,
        "meta_inclination": 98.1233,
        "meta_ra_of_asc_node": 130.1045,
        "meta_arg_of_pericenter": 101.5622,
        "meta_mean_anomaly": 258.7294,
        "meta_ephemeris_type": 0,
        "meta_classification_type": "U",
        "meta_norad_cat_id": 40310,
        "meta_element_set_no": 999,
        "meta_rev_at_epoch": 59801,
        "meta_bstar": 0.00021669507,
        "meta_mean_motion_dot": 1.449e-05,
        "meta_mean_motion_ddot": 0,
        "tle_line1": "1 40310U 14072A   25358.94532126  .00001449  00000+0  21670-3 0  9993",
        "tle_line2": "2 40310  98.1233 130.1045 0015199 101.5622 258.7294 14.76202505598014"
      },
      "geometry": {
        "type": "Point",
        "coordinates": [
          -51.22041163601108,
          -11.745531492549345
        ]
      }
    },
    {
      "type": "Feature",
      "properties": {
        "norad_id": 40336,
        "name": "CBERS 4",
        "group": "resource",
        "lat": -71.0806393074047,
        "lon": -148.39741252778666,
        "alt_km": 781.8300790740968,
        "timestamp": "2025-12-25T07:41:09.380133+00:00",
        "meta_object_name": "CBERS 4",
        "meta_object_id": "2014-079A",
        "meta_epoch": "2025-12-24T23:49:12.224640",
        "meta_mean_motion": 14.35522015,
        "meta_eccentricity": 0.00018941,
        "meta_inclination": 98.3289,
        "meta_ra_of_asc_node": 56.589,
        "meta_arg_of_pericenter": 99.5401,
        "meta_mean_anomaly": 260.5999,
        "meta_ephemeris_type": 0,
        "meta_classification_type": "U",
        "meta_norad_cat_id": 40336,
        "meta_element_set_no": 999,
        "meta_rev_at_epoch": 57896,
        "meta_bstar": 4.2390737e-05,
        "meta_mean_motion_dot": 8e-07,
        "meta_mean_motion_ddot": 0,
        "tle_line1": "1 40336U 14079A   25358.99250260  .00000080  00000+0  42391-4 0  9993",
        "tle_line2": "2 40336  98.3289  56.5890 0001894  99.5401 260.5999 14.35522015578963"
      },
      "geometry": {
        "type": "Point",
        "coordinates": [
          -148.39741252778666,
          -71.0806393074047
        ]
      }
    },
    {
      "type": "Feature",
      "properties": {
        "norad_id": 40362,
        "name": "YAOGAN-26",
        "group": "resource",
        "lat": -48.34752669565466,
        "lon": 171.534658610605,
        "alt_km": 455.3126374188796,
        "timestamp": "2025-12-25T07:41:09.380143+00:00",
        "meta_object_name": "YAOGAN-26",
        "meta_object_id": "2014-088A",
        "meta_epoch": "2025-12-24T22:53:47.589792",
        "meta_mean_motion": 15.39732597,
        "meta_eccentricity": 0.00043721,
        "meta_inclination": 97.0642,
        "meta_ra_of_asc_node": 359.1954,
        "meta_arg_of_pericenter": 351.6283,
        "meta_mean_anomaly": 8.489,
        "meta_ephemeris_type": 0,
        "meta_classification_type": "U",
        "meta_norad_cat_id": 40362,
        "meta_element_set_no": 999,
        "meta_rev_at_epoch": 61082,
        "meta_bstar": 0.00076789752,
        "meta_mean_motion_dot": 0.0003038,
        "meta_mean_motion_ddot": 0,
        "tle_line1": "1 40362U 14088A   25358.95402303  .00030380  00000+0  76790-3 0  9990",
        "tle_line2": "2 40362  97.0642 359.1954 0004372 351.6283   8.4890 15.39732597610822"
      },
      "geometry": {
        "type": "Point",
        "coordinates": [
          171.534658610605,
          -48.34752669565466
        ]
      }
    }
  ]
}